ORBCOMM FM06            
1 25118U 97084G   26203.49174148  .00000666  00000+0  21804-3 0  9991
2 25118  45.0125 242.7451 0001905 255.5818 244.4735 14.47637034499505
ORBCOMM FM04            
1 25159U 98007C   26203.02175847  .00000574  00000+0  24178-3 0  9993
2 25159 107.9632 241.1173 0042041 265.3218  94.3121 14.35792566481594
ORBCOMM FM19            
1 25415U 98046C   26202.63495882  .00000629  00000+0  24520-3 0  9993
2 25415  44.9940  79.8100 0003281 105.1931 275.6377 14.39549967461744
ORBCOMM FM20            
1 25416U 98046D   26202.40030915  .00000449  00000+0  19344-3 0  9999
2 25416  44.9942  89.2269 0000930  43.8049 316.2873 14.38106485461717
ORBCOMM FM27            
1 25481U 98053G   26202.61840125  .00000568  00000+0  22717-3 0  9994
2 25481  45.0037 171.8079 0002109 314.1707  45.8968 14.39192713455193
ORBCOMM FM32            
1 25982U 99065C   26203.46480662  .00000421  00000+0  18756-3 0  9990
2 25982  45.0165   6.2507 0006322 225.7604 134.2725 14.37174669392161
ORBCOMM FM109           
1 40086U 14040A   26203.50594400  .00000088  00000+0  54798-4 0  9999
2 40086  47.0030 284.4996 0001098 346.5261  13.5595 14.58874903639501
ORBCOMM FM110           
1 41182U 15081D   26203.37353052  .00000615  00000+0  16607-3 0  9996
2 41182  47.0003 195.0650 0003816 250.4417 109.6057 14.58926922562761
ORBCOMM FM118           
1 41183U 15081E   26202.72318850  .00000537  00000+0  14973-3 0  9999
2 41183  47.0024 198.4808 0003181 214.1701 145.8981 14.58910590562778
ORBCOMM FM112           
1 41184U 15081F   26202.79552286  .00000447  00000+0  13062-3 0  9998
2 41184  46.9989 106.5867 0003282 357.6021   2.4849 14.58945312564001
ORBCOMM FM113           
1 41185U 15081G   26203.45823577  .00000255  00000+0  90045-4 0  9991
2 41185  47.0007 103.8481 0001816 351.0559   9.0294 14.58887318564088
ORBCOMM FM108           
1 41187U 15081J   26203.48857404  .00000412  00000+0  12318-3 0  9993
2 41187  47.0060  15.2864 0002174 351.0042   9.0805 14.58917449565230
ORBCOMM FM117           
1 41188U 15081K   26203.52285717  .00000396  00000+0  11991-3 0  9998
2 41188  47.0023  13.7495 0002548 359.8916   0.1969 14.58904397565280
ORBCOMM FM116           
1 41189U 15081L   26203.43446297  .00000420  00000+0  12494-3 0  9998
2 41189  47.0023 103.9572 0001736 248.7188 111.3513 14.58913578564082
